STARLINK-2012_new
1 17635C 21012R   21326.10451380 -.00008277  00000-0 -55467-3 0  3267
2 17635  53.0534 178.2575 0002494  66.2858 148.3133 15.06396404    18
STARLINK-2012_old
1 27635C 21012R   21325.10919933 -.00059931  00000-0 -40174-2 0  3259
2 27635  53.0533 182.7277 0002491  65.8174 148.1301 15.06438474    18
